NORAD_CAT_ID,OBJECT_NAME,OBJECT_TYPE,EPOCH,MEAN_MOTION,ECCENTRICITY,INCLINATION,RA_OF_ASC_NODE,ARG_OF_PERICENTER,MEAN_ANOMALY,BSTAR,MEAN_MOTION_DOT,MEAN_MOTION_DDOT,TLE_LINE0,TLE_LINE1,TLE_LINE2,SEMIMAJOR_AXIS,PERIOD,APOGEE,PERIGEE,DECAYED
51727.0,STARLINK-3532,PAYLOAD,2022-08-30 14:00:01,15.08826474,0.0001537,53.2171,347.1605,47.6496,226.0354,-0.00011902,-2.181e-05,0.0,0 STARLINK-3532,1 51727U 22016P   22242.58334491 -.00002181  00000-0 -11902-3 0  9992,2 51727  53.2171 347.1605 0001537  47.6496 226.0354 15.08826474  1302,6917.922,95.438,540.85,538.7230000000002,0.0
51727.0,STARLINK-3532,PAYLOAD,2022-08-30 22:00:00,15.08849118,0.0001491,53.2167,345.6637,46.2972,238.9611,-0.0018755,-0.0003002,0.0,0 STARLINK-3532,1 51727U 22016P   22242.91667824 -.00030020  00000-0 -18755-2 0  9993,2 51727  53.2167 345.6637 0001491  46.2972 238.9611 15.08849118 30229,6917.853,95.437,540.749,538.686,0.0
51727.0,STARLINK-3532,PAYLOAD,2022-08-31 14:00:01,15.08840251,0.0001571,53.2165,342.6717,47.4247,261.0224,0.00011113,1.481e-05,0.0,0 STARLINK-3532,1 51727U 22016P   22243.58334491  .00001481  00000-0  11113-3 0  9997,2 51727  53.2165 342.6717 0001571  47.4247 261.0224 15.08840251  1303,6917.88,95.438,540.831,538.658,0.0
51727.0,STARLINK-3532,PAYLOAD,2022-08-31 22:00:00,15.08865028,0.0001511,53.2161,341.1745,45.8748,274.1639,-0.0020136,-0.00032213,0.0,0 STARLINK-3532,1 51727U 22016P   22243.91667824 -.00032213  00000-0 -20136-2 0  9996,2 51727  53.2161 341.1745 0001511  45.8748 274.1639 15.08865028  1300,6917.804,95.436,540.714,538.624,0.0
51727.0,STARLINK-3532,PAYLOAD,2022-09-01 14:00:01,15.08832579,0.0001556,53.2161,338.1824,43.9929,299.3356,-0.00045195,-7.472e-05,0.0,0 STARLINK-3532,1 51727U 22016P   22244.58335648 -.00007472  00000-0 -45195-3 0  9998,2 51727  53.2161 338.1824 0001556  43.9929 299.3356 15.08832579  1303,6917.903,95.438,540.844,538.692,0.0
51727.0,STARLINK-3532,PAYLOAD,2022-09-01 22:00:00,15.08851756,0.0001482,53.2159,336.6851,41.6301,313.2161,-0.001939,-0.00031025,0.0,0 STARLINK-3532,1 51727U 22016P   22244.91667824 -.00031025  00000-0 -19390-2 0  9997,2 51727  53.2159 336.6851 0001482  41.6301 313.2161 15.08851756  1308,6917.844,95.437,540.735,538.684,0.0
51727.0,STARLINK-3532,PAYLOAD,2022-09-02 14:00:01,15.08846448,0.0001651,53.2162,333.6931,42.7949,335.2457,-0.00060163,-9.852e-05,0.0,0 STARLINK-3532,1 51727U 22016P   22245.58334491 -.00009852  00000-0 -60163-3 0  9990,2 51727  53.2162 333.6931 0001651  42.7949 335.2457 15.08846448  1300,6917.861,95.437,540.868,538.5840000000002,0.0
51727.0,STARLINK-3532,PAYLOAD,2022-09-02 16:00:00,15.08836162,0.000166,53.2162,333.3191,41.2249,69.7195,0.00058946,9.105e-05,0.0,0 STARLINK-3532,1 51727U 22016P   22245.66667824  .00009105  00000-0  58946-3 0  9993,2 51727  53.2162 333.3191 0001660  41.2249  69.7195 15.08836162 30641,6917.892,95.438,540.905,538.609,0.0
51727.0,STARLINK-3532,PAYLOAD,2022-09-02 22:00:01,15.08850803,0.0001624,53.2162,332.1954,43.9517,345.7516,-0.0028835,-0.00045901,0.0,0 STARLINK-3532,1 51727U 22016P   22245.91668981 -.00045901  00000-0 -28835-2 0  9995,2 51727  53.2162 332.1954 0001624  43.9517 345.7516 15.08850803  1305,6917.847,95.437,540.836,538.589,0.0
51727.0,STARLINK-3532,PAYLOAD,2022-09-03 14:00:01,15.08830626,0.0001791,53.2165,329.2036,44.5566,8.263,0.0012777,0.0002009999999999,0.0,0 STARLINK-3532,1 51727U 22016P   22246.58334491  .00020100  00000-0  12777-2 0  9995,2 51727  53.2165 329.2036 0001791  44.5566   8.2630 15.08830626  1301,6917.909000000002,95.438,541.013,538.535,0.0
51727.0,STARLINK-3532,PAYLOAD,2022-09-03 16:00:00,15.08816975,0.0001786,53.2166,328.8296,42.3569,103.3651,0.0035500999999999,0.00056631,0.0,0 STARLINK-3532,1 51727U 22016P   22246.66667824  .00056631  00000-0  35501-2 0  9991,2 51727  53.2166 328.8296 0001786  42.3569 103.3651 15.08816975 30794,6917.951,95.439,541.0509999999998,538.58,0.0
51727.0,STARLINK-3532,PAYLOAD,2022-09-03 22:00:00,15.08861235,0.0001699,53.2166,327.706,44.8905,19.5196,-0.0013433,-0.00021616,0.0,0 STARLINK-3532,1 51727U 22016P   22246.91667824 -.00021616  00000-0 -13433-2 0  9996,2 51727  53.2166 327.7060 0001699  44.8905  19.5196 15.08861235  1301,6917.815,95.436,540.856,538.505,0.0
51727.0,STARLINK-3532,PAYLOAD,2022-09-04 08:00:01,15.08849274,0.0001771,53.217,325.8354,50.9998,117.8979,-0.00080778,-0.00013124,0.0,0 STARLINK-3532,1 51727U 22016P   22247.33334491 -.00013124  00000-0 -80778-3 0  9996,2 51727  53.2170 325.8354 0001771  50.9998 117.8979 15.08849274 30898,6917.852,95.437,540.942,538.492,0.0
51727.0,STARLINK-3532,PAYLOAD,2022-09-04 14:00:01,15.08831551,0.0001908,53.217,324.7143,46.0036,41.661,0.0014602,0.00023022,0.0,0 STARLINK-3532,1 51727U 22016P   22247.58335648  .00023022  00000-0  14602-2 0  9996,2 51727  53.2170 324.7143 0001908  46.0036  41.6610 15.08831551  1302,6917.906,95.438,541.091,538.451,0.0
51727.0,STARLINK-3532,PAYLOAD,2022-09-04 18:00:00,15.08865425,0.0001859,53.2167,323.9659,43.8145,229.5861,-0.0010377,-0.00016777,0.0,0 STARLINK-3532,1 51727U 22016P   22247.75001157 -.00016777  00000-0 -10377-2 0  9996,2 51727  53.2167 323.9659 0001859  43.8145 229.5861 15.08865425 30957,6917.803000000001,95.436,540.9540000000002,538.382,0.0
51727.0,STARLINK-3532,PAYLOAD,2022-09-04 20:00:01,15.08883472,0.0001825,53.2167,323.5912,44.2768,322.0239,-0.0039468,-0.00062631,0.0,0 STARLINK-3532,1 51727U 22016P   22247.83334491 -.00062631  00000-0 -39468-2 0  9997,2 51727  53.2167 323.5912 0001825  44.2768 322.0239 15.08883472  1301,6917.748000000001,95.435,540.875,538.35,0.0
51727.0,STARLINK-3532,PAYLOAD,2022-09-05 14:00:01,15.08857795,0.000181,53.2171,320.225,42.6771,79.765,-0.0012245,-0.00019733,0.0,0 STARLINK-3532,1 51727U 22016P   22248.58334491 -.00019733  00000-0 -12245-2 0  9999,2 51727  53.2171 320.2250 0001810  42.6771  79.7650 15.08857795  1307,6917.826,95.436,540.943,538.439,0.0
51727.0,STARLINK-3532,PAYLOAD,2022-09-05 22:00:00,15.08845913,0.0001665999999999,53.217,318.7273,44.8931,89.1598,-0.0036441,-0.00057828,0.0,0 STARLINK-3532,1 51727U 22016P   22248.91667824 -.00057828  00000-0 -36441-2 0  9996,2 51727  53.2170 318.7273 0001666  44.8931  89.1598 15.08845913 31133,6917.861999999999,95.437,540.88,538.575,0.0
51727.0,STARLINK-3532,PAYLOAD,2022-09-06 12:00:00,15.08798802,0.0001754999999999,53.2168,316.1101,43.1022,21.1934,0.00013616,1.877e-05,0.0,0 STARLINK-3532,1 51727U 22016P   22249.50001157  .00001877  00000-0  13616-3 0  9994,2 51727  53.2168 316.1101 0001755  43.1022  21.1934 15.08798802 31228,6918.005999999999,95.44,541.085,538.6569999999998,0.0
51727.0,STARLINK-3532,PAYLOAD,2022-09-06 14:00:01,15.08782551,0.0001766999999999,53.2169,315.7362,41.276,115.911,0.0026122,0.00041465,0.0,0 STARLINK-3532,1 51727U 22016P   22249.58334491  .00041465  00000-0  26122-2 0  9994,2 51727  53.2169 315.7362 0001767  41.2760 115.9110 15.08782551  1302,6918.056,95.441,541.143,538.6990000000002,0.0
51727.0,STARLINK-3532,PAYLOAD,2022-09-06 22:00:00,15.08810309,0.0001607,53.2166,314.2386,44.6163,124.1131,-0.00026689,-4.53e-05,0.0,0 STARLINK-3532,1 51727U 22016P   22249.91667824 -.00004530  00000-0 -26689-3 0  9993,2 51727  53.2166 314.2386 0001607  44.6163 124.1131 15.08810309  1304,6917.971,95.439,540.948,538.724,0.0
51727.0,STARLINK-3532,PAYLOAD,2022-09-07 14:00:01,15.08799884,0.0001781999999999,53.2163,311.2477,41.6523,150.2109,0.0028288,0.00044971,0.0,0 STARLINK-3532,1 51727U 22016P   22250.58334491  .00044971  00000-0  28288-2 0  9996,2 51727  53.2163 311.2477 0001782  41.6523 150.2109 15.08799884  1309,6918.003000000002,95.44,541.101,538.635,0.0
51727.0,STARLINK-3532,PAYLOAD,2022-09-07 22:00:00,15.08826677,0.0001629999999999,53.216,309.7498,45.1485,158.2834,0.0001075999999999,1.424e-05,0.0,0 STARLINK-3532,1 51727U 22016P   22250.91667824  .00001424  00000-0  10760-3 0  9995,2 51727  53.2160 309.7498 0001630  45.1485 158.2834 15.08826677  1303,6917.920999999999,95.438,540.914,538.658,0.0
51727.0,STARLINK-3532,PAYLOAD,2022-09-08 06:00:00,15.08849591,0.0001657,53.2159,308.2538,48.5606,166.4501,-0.00051591,-8.492e-05,0.0,0 STARLINK-3532,1 51727U 22016P   22251.25001157 -.00008492  00000-0 -51591-3 0  9995,2 51727  53.2159 308.2538 0001657  48.5606 166.4501 15.08849591 31485,6917.851,95.437,540.862,538.57,0.0
51727.0,STARLINK-3532,PAYLOAD,2022-09-08 14:00:01,15.0881867,0.0001839,53.2156,306.7588,41.8167,184.7985,0.003125,0.00049769,0.0,0 STARLINK-3532,1 51727U 22016P   22251.58334491  .00049769  00000-0  31250-2 0  9990,2 51727  53.2156 306.7588 0001839  41.8167 184.7985 15.08818670  1301,6917.946,95.439,541.0830000000002,538.538,0.0
51727.0,STARLINK-3532,PAYLOAD,2022-09-09 00:00:02,15.0883134,0.0001685,53.2152,304.8863,47.4816,283.7039,0.0029906,0.00047618,0.0,0 STARLINK-3532,1 51727U 22016P   22252.00002315  .00047618  00000-0  29906-2 0  9991,2 51727  53.2152 304.8863 0001685  47.4816 283.7039 15.08831340  1303,6917.906999999997,95.438,540.938,538.606,0.0
51727.0,STARLINK-3532,PAYLOAD,2022-09-09 06:00:00,15.08880364,0.0001796,53.2153,303.7647,49.3162,200.5001,-0.0035616,-0.00056589,0.0,0 STARLINK-3532,1 51727U 22016P   22252.25001157 -.00056589  00000-0 -35616-2 0  9995,2 51727  53.2153 303.7647 0001796  49.3162 200.5001 15.08880364 31635,6917.757,95.435,540.864,538.38,0.0
51727.0,STARLINK-3532,PAYLOAD,2022-09-09 14:00:01,15.08816008,0.0002014,53.2151,302.2696,44.4422,216.9985,0.0033885999999999,0.0005402,0.0,0 STARLINK-3532,1 51727U 22016P   22252.58334491  .00054020  00000-0  33886-2 0  9994,2 51727  53.2151 302.2696 0002014  44.4422 216.9985 15.08816008  1307,6917.954000000002,95.439,541.212,538.425,0.0
51727.0,STARLINK-3532,PAYLOAD,2022-09-09 22:00:00,15.08838271,0.0001863,53.2151,300.7713,47.663,225.3725,0.001223,0.00019229,0.0,0 STARLINK-3532,1 51727U 22016P   22252.91667824  .00019229  00000-0  12230-2 0  9992,2 51727  53.2151 300.7713 0001863  47.6630 225.3725 15.08838271 31739,6917.886,95.438,541.039,538.462,0.0
